[{"OBJECT_NAME":"DONGPO 10","OBJECT_ID":"2022-167H","EPOCH":"2026-03-09T22:44:56.137344","MEAN_MOTION":15.322785,"ECCENTRICITY":0.00061655,"INCLINATION":97.685,"RA_OF_ASC_NODE":235.0962,"ARG_OF_PERICENTER":106.9526,"MEAN_ANOMALY":253.2392,"EPHEMERIS_TYPE":0,"CLASSIFICATION_TYPE":"U","NORAD_CAT_ID":54689,"ELEMENT_SET_NO":999,"REV_AT_EPOCH":18015,"BSTAR":0.00049390523,"MEAN_MOTION_DOT":0.00015333,"MEAN_MOTION_DDOT":0},{"OBJECT_NAME":"STARLINK-35904","OBJECT_ID":"2025-271L","EPOCH":"2026-03-09T11:33:48.525696","MEAN_MOTION":15.30193865,"ECCENTRICITY":9.943e-5,"INCLINATION":53.1575,"RA_OF_ASC_NODE":140.9863,"ARG_OF_PERICENTER":76.5963,"MEAN_ANOMALY":283.5148,"EPHEMERIS_TYPE":0,"CLASSIFICATION_TYPE":"U","NORAD_CAT_ID":66627,"ELEMENT_SET_NO":999,"REV_AT_EPOCH":1749,"BSTAR":0.001243665,"MEAN_MOTION_DOT":0.00036649,"MEAN_MOTION_DDOT":0}]
